OBJECT_NAME,OBJECT_ID,EPOCH,MEAN_MOTION,ECCENTRICITY,INCLINATION,RA_OF_ASC_NODE,ARG_OF_PERICENTER,MEAN_ANOMALY,EPHEMERIS_TYPE,CLASSIFICATION_TYPE,NORAD_CAT_ID,ELEMENT_SET_NO,REV_AT_EPOCH,BSTAR,MEAN_MOTION_DOT,MEAN_MOTION_DDOT
ONEWEB-0721,2023-068R,2026-07-01T05:05:59.331264,13.22470368,.00018348,86.6761,81.0401,78.0689,282.0649,0,U,56725,999,15979,.27001472E-3,.127E-5,0
ONEWEB-0015,2024-188A,2026-07-01T12:00:56.592864,13.11416943,.00018403,87.8875,18.2429,70.9938,289.1389,0,U,61594,999,8633,-.13785522E-2,-.476E-5,0
ONEWEB-0687,2024-188B,2026-07-01T12:09:46.227456,13.17649614,.00022402,87.9130,3.0266,80.9012,279.2373,0,U,61595,999,8778,.47595654E-4,.31E-6,0
ONEWEB-0688,2024-188C,2026-07-01T11:01:43.384224,13.17649560,.00020184,87.9126,3.0361,54.1100,306.0218,0,U,61596,999,8777,.91457172E-4,.48E-6,0
ONEWEB-0689,2024-188D,2026-07-01T10:59:55.268448,13.11415910,.00021491,87.8893,18.2111,89.2916,270.8458,0,U,61597,999,8632,.15737815E-2,.57E-5,0
ONEWEB-0690,2024-188E,2026-07-01T11:14:34.390176,13.11414703,.00012278,87.8885,18.2201,97.4353,262.6914,0,U,61598,999,8650,.56905632E-3,.214E-5,0
ONEWEB-0691,2024-188F,2026-07-01T11:07:14.728224,13.11415440,.00019446,87.8896,18.1312,76.1624,283.9720,0,U,61599,999,8635,.70029871E-3,.261E-5,0
ONEWEB-0692,2024-188G,2026-07-01T11:36:32.321088,13.11414980,.00023837,87.8874,18.2378,104.6257,255.5135,0,U,61600,999,8634,-.79245667E-3,-.268E-5,0
ONEWEB-0693,2024-188H,2026-07-01T11:18:44.414496,13.17648986,.00010663,87.9125,3.0530,94.1080,266.0174,0,U,61601,999,8776,.2658058E-4,.23E-6,0
ONEWEB-0695,2024-188J,2026-07-01T11:02:22.251264,13.11415992,.00023285,87.8876,18.2343,94.5045,265.6349,0,U,61602,999,8633,.11485127E-2,.42E-5,0
ONEWEB-0697,2024-188K,2026-07-01T11:48:44.405568,13.11415848,.00023018,87.8875,18.2186,106.1243,254.0138,0,U,61603,999,8632,-.14360742E-2,-.496E-5,0
ONEWEB-0698,2024-188L,2026-07-01T11:17:00.907296,13.11414424,.00017613,87.8873,18.2365,126.2984,233.8307,0,U,61604,999,8634,.45748819E-3,.175E-5,0
ONEWEB-0699,2024-188M,2026-07-01T11:51:29.816640,13.10375001,.00019566,87.8827,33.4152,109.6835,250.4504,0,U,61605,999,8518,.20210579E-2,.718E-5,0
ONEWEB-0700,2024-188N,2026-07-01T11:53:57.023232,13.10376755,.00023248,87.8837,33.3264,98.4450,261.6941,0,U,61606,999,8517,.19507479E-2,.694E-5,0
ONEWEB-0701,2024-188P,2026-07-01T12:18:23.580288,13.10369227,.00021685,87.8820,33.4117,107.8826,252.2538,0,U,61607,999,8518,.72181416E-3,.265E-5,0
ONEWEB-0702,2024-188Q,2026-07-01T12:22:55.996032,13.11418108,.0002637,87.8897,18.1361,105.5173,254.6246,0,U,61608,999,8636,.18451391E-3,.78E-6,0
ONEWEB-0704,2024-188R,2026-07-01T12:01:16.957344,13.10375313,.00026625,87.8825,33.4037,101.4161,258.7266,0,U,61609,999,8516,.17590611E-2,.627E-5,0
ONEWEB-0705,2024-188S,2026-07-01T12:08:37.672512,13.10370121,.00028409,87.8826,33.4085,85.5459,274.5993,0,U,61610,999,7733,.14724399E-2,.527E-5,0
ONEWEB-0706,2024-188T,2026-07-01T11:46:38.187264,13.10376429,.00023572,87.8826,33.4160,92.8780,267.2617,0,U,61611,999,8525,.13649369E-2,.489E-5,0
ONEWEB-0707,2024-188U,2026-07-01T11:56:23.682048,13.10376472,.0002371,87.8827,33.4091,93.5571,266.5827,0,U,61612,999,8519,.1963389E-2,.698E-5,0
ONEWEB-0708,2024-188V,2026-07-01T12:23:17.837088,13.10373693,.00022473,87.8812,33.4227,75.9757,284.1620,0,U,61613,999,8517,.27326326E-3,.108E-5,0
