ONEWEB-0721             
1 56725U 23068R   26182.21249226  .00000127  00000+0  27001-3 0  9993
2 56725  86.6761  81.0401 0001834  78.0689 282.0649 13.22470368159797
ONEWEB-0015             
1 61594U 24188A   26182.50065501 -.00000476  00000+0 -13786-2 0  9994
2 61594  87.8875  18.2429 0001840  70.9938 289.1389 13.11416943 86338
ONEWEB-0687             
1 61595U 24188B   26182.50678504  .00000031  00000+0  47596-4 0  9991
2 61595  87.9130   3.0266 0002240  80.9012 279.2373 13.17649614 87786
ONEWEB-0688             
1 61596U 24188C   26182.45952991  .00000048  00000+0  91457-4 0  9994
2 61596  87.9126   3.0361 0002018  54.1100 306.0218 13.17649560 87778
ONEWEB-0689             
1 61597U 24188D   26182.45827857  .00000570  00000+0  15738-2 0  9993
2 61597  87.8893  18.2111 0002149  89.2916 270.8458 13.11415910 86327
ONEWEB-0690             
1 61598U 24188E   26182.46845359  .00000214  00000+0  56906-3 0  9990
2 61598  87.8885  18.2201 0001227  97.4353 262.6914 13.11414703 86506
ONEWEB-0691             
1 61599U 24188F   26182.46336491  .00000261  00000+0  70030-3 0  9999
2 61599  87.8896  18.1312 0001944  76.1624 283.9720 13.11415440 86355
ONEWEB-0692             
1 61600U 24188G   26182.48370742 -.00000268  00000+0 -79246-3 0  9998
2 61600  87.8874  18.2378 0002383 104.6257 255.5135 13.11414980 86346
ONEWEB-0693             
1 61601U 24188H   26182.47134739  .00000023  00000+0  26581-4 0  9994
2 61601  87.9125   3.0530 0001066  94.1080 266.0174 13.17648986 87761
ONEWEB-0695             
1 61602U 24188J   26182.45997976  .00000420  00000+0  11485-2 0  9999
2 61602  87.8876  18.2343 0002328  94.5045 265.6349 13.11415992 86335
ONEWEB-0697             
1 61603U 24188K   26182.49218062 -.00000496  00000+0 -14361-2 0  9997
2 61603  87.8875  18.2186 0002301 106.1243 254.0138 13.11415848 86328
ONEWEB-0698             
1 61604U 24188L   26182.47014939  .00000175  00000+0  45749-3 0  9990
2 61604  87.8873  18.2365 0001761 126.2984 233.8307 13.11414424 86344
ONEWEB-0699             
1 61605U 24188M   26182.49409510  .00000718  00000+0  20211-2 0  9995
2 61605  87.8827  33.4152 0001956 109.6835 250.4504 13.10375001 85184
ONEWEB-0700             
1 61606U 24188N   26182.49579888  .00000694  00000+0  19507-2 0  9991
2 61606  87.8837  33.3264 0002324  98.4450 261.6941 13.10376755 85172
ONEWEB-0701             
1 61607U 24188P   26182.51277292  .00000265  00000+0  72181-3 0  9991
2 61607  87.8820  33.4117 0002168 107.8826 252.2538 13.10369227 85186
ONEWEB-0702             
1 61608U 24188Q   26182.51592588  .00000078  00000+0  18451-3 0  9992
2 61608  87.8897  18.1361 0002637 105.5173 254.6246 13.11418108 86360
ONEWEB-0704             
1 61609U 24188R   26182.50089071  .00000627  00000+0  17591-2 0  9993
2 61609  87.8825  33.4037 0002662 101.4161 258.7266 13.10375313 85165
ONEWEB-0705             
1 61610U 24188S   26182.50599158  .00000527  00000+0  14724-2 0  9991
2 61610  87.8826  33.4085 0002840  85.5459 274.5993 13.10370121 77336
ONEWEB-0706             
1 61611U 24188T   26182.49071976  .00000489  00000+0  13649-2 0  9995
2 61611  87.8826  33.4160 0002357  92.8780 267.2617 13.10376429 85251
ONEWEB-0707             
1 61612U 24188U   26182.49749632  .00000698  00000+0  19634-2 0  9999
2 61612  87.8827  33.4091 0002371  93.5571 266.5827 13.10376472 85194
ONEWEB-0708             
1 61613U 24188V   26182.51617867  .00000108  00000+0  27326-3 0  9991
2 61613  87.8812  33.4227 0002247  75.9757 284.1620 13.10373693 85179
